[
    {
        "Altitude(m)": 554242.2071337181,
        "Argument of Periapsis(deg)": 0.0,
        "Eccentricity": 0.0,
        "Inclination(deg)": 53.0,
        "Latitude(deg)": -0.07934680827194092,
        "Longitude(deg)": -0.02873348664181773,
        "Mean Anomaly(deg)": 0.0,
        "RAAN(deg)": 100.0,
        "Satellite Name": "Starlink Shell 1 440",
        "Satellite Number": 440,
        "Semi-Major Axis(m)": 6931778.249405717,
        "Time(s)": 0
    },
    {
        "Altitude(m)": 554177.7913156026,
        "Argument of Periapsis(deg)": 0.00034857847951123687,
        "Eccentricity": 0.0,
        "Inclination(deg)": 53.0,
        "Latitude(deg)": 0.4245966564050316,
        "Longitude(deg)": 0.30664245622419317,
        "Mean Anomaly(deg)": 0.6268312035567084,
        "RAAN(deg)": 99.99948122992252,
        "Satellite Name": "Starlink Shell 1 440",
        "Satellite Number": 440,
        "Semi-Major Axis(m)": 6931778.249405717,
        "Time(s)": 10
    },
    {
        "Altitude(m)": 554116.1796100406,
        "Argument of Periapsis(deg)": 0.0006971569590224737,
        "Eccentricity": 0.0,
        "Inclination(deg)": 53.0,
        "Latitude(deg)": 0.9285303953309177,
        "Longitude(deg)": 0.6420741356863034,
        "Mean Anomaly(deg)": 1.2536624071134295,
        "RAAN(deg)": 99.99896245984505,
        "Satellite Name": "Starlink Shell 1 440",
        "Satellite Number": 440,
        "Semi-Major Axis(m)": 6931778.249405717,
        "Time(s)": 20
    },
    {
        "Altitude(m)": 554057.3781889322,
        "Argument of Periapsis(deg)": 0.0010457354385337105,
        "Eccentricity": 0.0,
        "Inclination(deg)": 53.0,
        "Latitude(deg)": 1.432431500086895,
        "Longitude(deg)": 0.9776191059067191,
        "Mean Anomaly(deg)": 1.8804936106701375,
        "RAAN(deg)": 99.99844368976758,
        "Satellite Name": "Starlink Shell 1 440",
        "Satellite Number": 440,
        "Semi-Major Axis(m)": 6931778.249405717,
        "Time(s)": 30
    },
    {
        "Altitude(m)": 554001.3918678905,
        "Argument of Periapsis(deg)": 0.0013943139180449475,
        "Eccentricity": 0.0,
        "Inclination(deg)": 53.0,
        "Latitude(deg)": 1.9362770369385895,
        "Longitude(deg)": 1.3133354775079689,
        "Mean Anomaly(deg)": 2.507324814226859,
        "RAAN(deg)": 99.9979249196901,
        "Satellite Name": "Starlink Shell 1 440",
        "Satellite Number": 440,
        "Semi-Major Axis(m)": 6931778.249405717,
        "Time(s)": 40
    },
    {
        "Altitude(m)": 553948.2241065723,
        "Argument of Periapsis(deg)": 0.0017428923975561844,
        "Eccentricity": 0.0,
        "Inclination(deg)": 53.0,
        "Latitude(deg)": 2.440044035121199,
        "Longitude(deg)": 1.6492809342482557,
        "Mean Anomaly(deg)": 3.13415601778358,
        "RAAN(deg)": 99.99740614961264,
        "Satellite Name": "Starlink Shell 1 440",
        "Satellite Number": 440,
        "Semi-Major Axis(m)": 6931778.249405717,
        "Time(s)": 50
    },
    {
        "Altitude(m)": 553897.8770097392,
        "Argument of Periapsis(deg)": 0.002091470877067421,
        "Eccentricity": 0.0,
        "Inclination(deg)": 53.0,
        "Latitude(deg)": 2.9437094750930153,
        "Longitude(deg)": 1.9855132625965322,
        "Mean Anomaly(deg)": 3.7609872213402884,
        "RAAN(deg)": 99.99688737953517,
        "Satellite Name": "Starlink Shell 1 440",
        "Satellite Number": 440,
        "Semi-Major Axis(m)": 6931778.249405717,
        "Time(s)": 60
    },
    {
        "Altitude(m)": 553850.3513289703,
        "Argument of Periapsis(deg)": 0.0024400493565786582,
        "Eccentricity": 0.0,
        "Inclination(deg)": 53.0,
        "Latitude(deg)": 3.4472502767434756,
        "Longitude(deg)": 2.3220908813425063,
        "Mean Anomaly(deg)": 4.387818424897009,
        "RAAN(deg)": 99.99636860945769,
        "Satellite Name": "Starlink Shell 1 440",
        "Satellite Number": 440,
        "Semi-Major Axis(m)": 6931778.249405717,
        "Time(s)": 70
    },
    {
        "Altitude(m)": 553805.6464650533,
        "Argument of Periapsis(deg)": 0.002788627836089895,
        "Eccentricity": 0.0,
        "Inclination(deg)": 53.0,
        "Latitude(deg)": 3.950643287541369,
        "Longitude(deg)": 2.659071858374711,
        "Mean Anomaly(deg)": 5.014649628453718,
        "RAAN(deg)": 99.99584983938021,
        "Satellite Name": "Starlink Shell 1 440",
        "Satellite Number": 440,
        "Semi-Major Axis(m)": 6931778.249405717,
        "Time(s)": 80
    },
    {
        "Altitude(m)": 553763.7604710629,
        "Argument of Periapsis(deg)": 0.0031372063156011316,
        "Eccentricity": 0.0,
        "Inclination(deg)": 53.0,
        "Latitude(deg)": 4.453865270617624,
        "Longitude(deg)": 2.9965144403800754,
        "Mean Anomaly(deg)": 5.641480832010439,
        "RAAN(deg)": 99.99533106930275,
        "Satellite Name": "Starlink Shell 1 440",
        "Satellite Number": 440,
        "Semi-Major Axis(m)": 6931778.249405717,
        "Time(s)": 90
    },
    {
        "Altitude(m)": 553724.6900560963,
        "Argument of Periapsis(deg)": 0.0034857847951123688,
        "Eccentricity": 0.0,
        "Inclination(deg)": 53.0,
        "Latitude(deg)": 4.956892892768426,
        "Longitude(deg)": 3.33447758259969,
        "Mean Anomaly(deg)": 6.268312035567147,
        "RAAN(deg)": 99.99481229922527,
        "Satellite Name": "Starlink Shell 1 440",
        "Satellite Number": 440,
        "Semi-Major Axis(m)": 6931778.249405717,
        "Time(s)": 100
    },
    {
        "Altitude(m)": 553688.4305896859,
        "Argument of Periapsis(deg)": 0.003834363274623606,
        "Eccentricity": 0.0,
        "Inclination(deg)": 53.0,
        "Latitude(deg)": 5.459702712364414,
        "Longitude(deg)": 3.673019965772104,
        "Mean Anomaly(deg)": 6.895143239123868,
        "RAAN(deg)": 99.99429352914781,
        "Satellite Name": "Starlink Shell 1 440",
        "Satellite Number": 440,
        "Semi-Major Axis(m)": 6931778.249405717,
        "Time(s)": 110
    },
    {
        "Altitude(m)": 553654.9761068815,
        "Argument of Periapsis(deg)": 0.004182941754134842,
        "Eccentricity": 0.0,
        "Inclination(deg)": 53.0,
        "Latitude(deg)": 5.962271167160101,
        "Longitude(deg)": 4.0122005260182725,
        "Mean Anomaly(deg)": 7.521974442680577,
        "RAAN(deg)": 99.99377475907033,
        "Satellite Name": "Starlink Shell 1 440",
        "Satellite Number": 440,
        "Semi-Major Axis(m)": 6931778.249405717,
        "Time(s)": 120
    },
    {
        "Altitude(m)": 553624.3193139937,
        "Argument of Periapsis(deg)": 0.004531520233646079,
        "Eccentricity": 0.0,
        "Inclination(deg)": 53.0,
        "Latitude(deg)": 6.464574561989128,
        "Longitude(deg)": 4.352078984799437,
        "Mean Anomaly(deg)": 8.148805646237285,
        "RAAN(deg)": 99.99325598899286,
        "Satellite Name": "Starlink Shell 1 440",
        "Satellite Number": 440,
        "Semi-Major Axis(m)": 6931778.249405717,
        "Time(s)": 130
    },
    {
        "Altitude(m)": 553596.4515950131,
        "Argument of Periapsis(deg)": 0.0048800987131573164,
        "Eccentricity": 0.0,
        "Inclination(deg)": 53.0,
        "Latitude(deg)": 6.9665890563310136,
        "Longitude(deg)": 4.692714866080423,
        "Mean Anomaly(deg)": 8.775636849794019,
        "RAAN(deg)": 99.99273721891538,
        "Satellite Name": "Starlink Shell 1 440",
        "Satellite Number": 440,
        "Semi-Major Axis(m)": 6931778.249405717,
        "Time(s)": 140
    },
    {
        "Altitude(m)": 553571.3630186488,
        "Argument of Periapsis(deg)": 0.005228677192668553,
        "Eccentricity": 0.0,
        "Inclination(deg)": 53.0,
        "Latitude(deg)": 7.468290651743208,
        "Longitude(deg)": 5.03416802644871,
        "Mean Anomaly(deg)": 9.402468053350727,
        "RAAN(deg)": 99.99221844883792,
        "Satellite Name": "Starlink Shell 1 440",
        "Satellite Number": 440,
        "Semi-Major Axis(m)": 6931778.249405717,
        "Time(s)": 150
    },
    {
        "Altitude(m)": 553549.0423460754,
        "Argument of Periapsis(deg)": 0.00557725567217979,
        "Eccentricity": 0.0,
        "Inclination(deg)": 53.0,
        "Latitude(deg)": 7.9696551791441035,
        "Longitude(deg)": 5.376499185320708,
        "Mean Anomaly(deg)": 10.029299256907448,
        "RAAN(deg)": 99.99169967876044,
        "Satellite Name": "Starlink Shell 1 440",
        "Satellite Number": 440,
        "Semi-Major Axis(m)": 6931778.249405717,
        "Time(s)": 160
    },
    {
        "Altitude(m)": 553529.4770392857,
        "Argument of Periapsis(deg)": 0.0059258341516910265,
        "Eccentricity": 0.0,
        "Inclination(deg)": 53.0,
        "Latitude(deg)": 8.470658285932146,
        "Longitude(deg)": 5.719768942364189,
        "Mean Anomaly(deg)": 10.656130460464157,
        "RAAN(deg)": 99.99118090868298,
        "Satellite Name": "Starlink Shell 1 440",
        "Satellite Number": 440,
        "Semi-Major Axis(m)": 6931778.249405717,
        "Time(s)": 170
    },
    {
        "Altitude(m)": 553512.6532700935,
        "Argument of Periapsis(deg)": 0.006274412631202263,
        "Eccentricity": 0.0,
        "Inclination(deg)": 53.0,
        "Latitude(deg)": 8.971275422935044,
        "Longitude(deg)": 6.064038307886503,
        "Mean Anomaly(deg)": 11.282961664020865,
        "RAAN(deg)": 99.99066213860549,
        "Satellite Name": "Starlink Shell 1 440",
        "Satellite Number": 440,
        "Semi-Major Axis(m)": 6931778.249405717,
        "Time(s)": 180
    }
]